IRIDIUM 148             
1 43255U 18030G   23155.93865220  .00000282  00000+0  93484-4 0  9995
2 43255  86.3992  33.6253 0001966  93.3248 266.8172 14.34220151271321
IRIDIUM 142             
1 43256U 18030H   23156.18600718  .00000289  00000+0  96039-4 0  9999
2 43256  86.3988  33.4513 0002128  84.2618 275.8820 14.34220733271321
IRIDIUM 150             
1 43257U 18030J   23155.94499071  .00000215  00000+0  69841-4 0  9991
2 43257  86.3992  33.6324 0002115  76.5928 283.5503 14.34215468271315
IRIDIUM 143             
1 43258U 18030K   23155.92596341  .00000261  00000+0  86103-4 0  9999
2 43258  86.3996  33.6886 0001968  84.9894 275.1526 14.34217482271245
GAOFEN 1-02             
1 43259U 18031A   23156.17658142  .00000934  00000+0  14106-3 0  9997
2 43259  97.8632 229.4255 0002339 320.0371  40.0667 14.76552986279196
GAOFEN 1-03             
1 43260U 18031B   23156.22267197  .00000951  00000+0  14337-3 0  9996
2 43260  97.8626 229.4166 0005575  34.6325 325.5248 14.76569674279192
GAOFEN 1-04             
1 43262U 18031D   23156.19805265  .00000953  00000+0  14365-3 0  9991
2 43262  97.8634 229.4606 0002877   6.2584 353.8661 14.76568889279185
SUPERBIRD-B3            
1 43271U 18033A   23155.84980417 -.00000078  00000+0  00000+0 0  9993
2 43271   0.0209 340.0752 0001560 124.8757 255.9848  1.00270658 18938
HYLAS 4                 
1 43272U 18033B   23156.15640112 -.00000220  00000+0  00000+0 0  9993
2 43272   0.0720 273.1515 0001861 165.0729 197.9500  1.00270481 18967
YAOGAN-31 A             
1 43275U 18034A   23156.18779619 -.00000092  00000+0 -23470-5 0  9995
2 43275  63.4010  60.0951 0176559   4.4355 355.8186 13.45269681253159
YAOGAN-31 B             
1 43276U 18034B   23156.18804030 -.00000047  00000+0  66661-4 0  9999
2 43276  63.4024  60.0805 0176684   4.3934 355.8594 13.45269411253158
YAOGAN-31 C             
1 43277U 18034C   23156.18785113 -.00000035  00000+0  84518-4 0  9998
2 43277  63.4033  59.3409 0176668   4.2592 355.9888 13.45269842253178
WEINA 1B                
1 43279U 18034E   23156.14739284 -.00000036  00000+0  83420-4 0  9996
2 43279  63.4026  60.4095 0176435   5.1912 355.0890 13.45223924253146
IRNSS-1I                
1 43286U 18035A   23155.90017601  .00000090  00000+0  00000+0 0  9997
2 43286  29.0476  91.6582 0018444 184.2588 356.2327  1.00275039 18959
USA 283                 
1 43339U 18036A   23151.39999635 -.00000298  00000+0  00000+0 0  9993
2 43339   0.0178 304.7488 0000642 140.1934  81.7909  1.00268528  7584
COSMOS 2526             
1 43432U 18037A   23155.98641644 -.00000330  00000+0  00000+0 0  9998
2 43432   0.0102  63.1475 0000086 168.9297 144.2407  1.00271678 18859
TESS                    
1 43435U 18038A   23153.25268614 -.00001987  00000+0  00000+0 0  9991
2 43435  38.6265  74.7438 4404461 167.5640   4.7100  0.06925792  1032
SENTINEL-3B             
1 43437U 18039A   23155.78667035  .00000146  00000+0  78337-4 0  9992
2 43437  98.6279 223.0703 0000912 100.6009 259.5274 14.26739533266077
ZHUHAI-1 OHS-01         
1 43439U 18040A   23156.16723254  .00014595  00000+0  51073-3 0  9995
2 43439  97.1883 207.1985 0009714 218.9260 141.1282 15.29567225283446
ZHUHAI-1 OVS-02         
1 43440U 18040B   23156.16283994  .00013279  00000+0  46975-3 0  9992
2 43440  97.1918 207.4949 0008473 232.4708 127.5764 15.29243972283453
ZHUHAI-1 OHS-02         
1 43441U 18040C   23156.19664711  .00013040  00000+0  45774-3 0  9998
2 43441  97.2047 210.4057 0008686 249.5036 110.5273 15.29500655283463
ZHUHAI-1 OHS-03         
1 43442U 18040D   23156.18260319  .00014262  00000+0  47109-3 0  9995
2 43442  97.1857 207.7108 0002988 237.8526 122.2427 15.31486388283528
ZHUHAI-1 OHS-04         
1 43443U 18040E   23156.19191876  .00012869  00000+0  45333-3 0  9996
2 43443  97.1944 208.2609 0005037 209.4888 150.6070 15.29412241283468
USA 285                 
1 43445U 18036E   23155.09098031 -.00000066  00000+0  00000+0 0  9995
2 43445   4.3915  79.7574 0008534 118.1930  38.0295  1.02113000 15614
USA 286                 
1 43446U 18036F   23155.02840228  .00000054  00000+0  00000+0 0  9998
2 43446   4.3892  79.7111 0008301 114.2747  65.0237  1.02119091 15590
APSTAR 6C               
1 43450U 18041A   23156.08452280 -.00000304  00000+0  00000+0 0  9992
2 43450   0.0112 319.4602 0001582 144.4724 313.7732  1.00269154 18732
GAOFEN 5-01             
1 43461U 18043A   23155.85569116  .00000462  00000+0  10976-3 0  9998
2 43461  98.3102 100.2267 0000574 309.0774  51.0373 14.58439174270012
BANGABANDHUSAT-1        
1 43463U 18044A   23155.86742080 -.00000348  00000+0  00000+0 0  9992
2 43463   0.0170  31.3294 0001918  43.8531 249.2372  1.00270689 18590
GRACE-FO 1              
1 43476U 18047A   23155.88835649  .00002756  00000+0  10538-3 0  9990
2 43476  88.9873 350.8319 0016916  85.1728 275.1452 15.26091827280122
GRACE-FO 2              
1 43477U 18047B   23155.88861707  .00002736  00000+0  10460-3 0  9997
2 43477  88.9872 350.8334 0016925  85.2292 275.0889 15.26091981280120
IRIDIUM 161             
1 43478U 18047C   23156.19280855  .00000351  00000+0  98460-4 0  9990
2 43478  86.4527 191.5098 0002426  89.5065 270.6414 14.43290421265322
IRIDIUM 152             
1 43479U 18047D   23155.61960840  .00000377  00000+0  12770-3 0  9993
2 43479  86.4001 191.6106 0002132  95.8088 264.3351 14.34218652263593
IRIDIUM 147             
1 43480U 18047E   23155.83525719  .00000082  00000+0  22055-4 0  9992
2 43480  86.4003 191.5065 0002534  92.0948 268.0538 14.34217448263624
IRIDIUM 110             
1 43481U 18047F   23156.19044253  .00000300  00000+0  99987-4 0  9993
2 43481  86.4004 191.4210 0002450  86.7443 273.4032 14.34217290263662
IRIDIUM 162             
1 43482U 18047G   23156.18653777  .00000347  00000+0  97148-4 0  9998
2 43482  86.4526 191.4177 0002443  91.3394 268.8087 14.43287756265319
GAOFEN 6                
1 43484U 18048A   23156.16559590  .00000883  00000+0  13362-3 0  9997
2 43484  97.8986 234.5213 0010974 137.5668 222.6392 14.76587868269888
LUOJIA-1 01             
1 43485U 18048B   23156.21189989  .00001896  00000+0  26432-3 0  9992
2 43485  97.9057 236.5283 0011981 134.8828 225.3358 14.78841198269978
SES-12                  
1 43488U 18049A   23155.90088997 -.00000255  00000+0  00000+0 0  9996
2 43488   0.0320  50.8797 0000487 265.4793 356.0351  1.00270203 18305
FENGYUN 2H              
1 43491U 18050A   23155.90497007 -.00000115  00000+0  00000+0 0  9993
2 43491   2.0463  91.2554 0003085  59.9842 146.8625  1.00270000 18323
COSMOS 2527 [GLONASS-M] 
1 43508U 18053A   23155.22245961  .00000031  00000+0  00000+0 0  9996
2 43508  65.0649 111.0402 0009119 242.3783 117.4961  2.13102344 38640
XJS A                   
1 43518U 18054A   23156.18199528  .00016187  00000+0  62423-3 0  9991
2 43518  35.0428 338.3425 0006513 206.6096 153.4286 15.25450774276708
XJS B                   
1 43519U 18054B   23156.19695478  .00025580  00000+0  80467-3 0  9993
2 43519  35.0399 331.5319 0003989 132.4842 227.6214 15.32018501276770
PAKTES 1A               
1 43529U 18056A   23156.22543930  .00001772  00000+0  18965-3 0  9996
2 43529  98.0029 267.3944 0025831 171.3485 188.8183 14.89808789266436
PRSS 1                  
1 43530U 18056B   23156.15826497  .00000916  00000+0  13398-3 0  9996
2 43530  97.9001 233.4027 0001608  87.4643 272.6752 14.77994603264532
BEIDOU-2 IGSO-7         
1 43539U 18057A   23155.59094029 -.00000040  00000+0  00000+0 0  9992
2 43539  55.1040 172.6359 0061458 231.4473 172.7218  1.00258762 18033
AEROCUBE 12B            
1 43557U 18046D   23155.86822058  .00113759  00000+0  88801-3 0  9991
2 43557  51.6270 248.9810 0007819 294.4155  65.6026 15.70773662273779
TELSTAR 19V             
1 43562U 18059A   23155.87665094 -.00000265  00000+0  00000+0 0  9996
2 43562   0.0196 220.5645 0003114 251.9481  33.1408  1.00271286 18039
GSAT0221 (GALILEO 25)   
1 43564U 18060A   23153.07294548 -.00000068  00000+0  00000+0 0  9993
2 43564  57.2683  11.7385 0002256 315.7545  44.2866  1.70475615 30228
GSAT0222 (GALILEO 26)   
1 43565U 18060B   23153.29285871 -.00000068  00000+0  00000+0 0  9997
2 43565  57.2706  11.7335 0002338 334.0360  26.0116  1.70475560 30270
GSAT0219 (GALILEO 23)   
1 43566U 18060C   23155.27311885 -.00000068  00000+0  00000+0 0  9993
2 43566  57.2715  11.6821 0002091 342.0478  18.0030  1.70475548 30288
GSAT0220 (GALILEO 24)   
1 43567U 18060D   23154.90688236 -.00000068  00000+0  00000+0 0  9990
2 43567  57.2712  11.6927 0002190 329.8680  30.1781  1.70475401 30265
IRIDIUM 160             
1 43569U 18061A   23155.57812992  .00000157  00000+0  49045-4 0  9990
2 43569  86.3980 160.1005 0002289  96.0031 264.1426 14.34217183254477
IRIDIUM 166             
1 43570U 18061B   23155.74303581  .00000148  00000+0  45694-4 0  9996
2 43570  86.3978 159.9973 0002342  86.9713 273.1751 14.34219346254521
IRIDIUM 158             
1 43571U 18061C   23155.99039755  .00000142  00000+0  43810-4 0  9995
2 43571  86.3978 159.9028 0002021  94.1400 266.0026 14.34219311254530
IRIDIUM 165             
1 43572U 18061D   23156.08553508  .00000149  00000+0  46175-4 0  9998
2 43572  86.3978 159.8885 0001949  89.9163 270.2256 14.34216586254563
IRIDIUM 155             
1 43573U 18061E   23155.76842024 -.00000108  00000+0 -45695-4 0  9990
2 43573  86.3980 159.9444 0002390  84.7291 275.4177 14.34216327254488
IRIDIUM 154             
1 43574U 18061F   23155.74938511  .00000149  00000+0  46250-4 0  9997
2 43574  86.3980 160.0321 0002406  95.5486 264.5984 14.34218417254533
IRIDIUM 163             
1 43575U 18061G   23155.52104990  .00000238  00000+0  77835-4 0  9992
2 43575  86.3977 160.0770 0002293  93.9018 266.2440 14.34218084254474
IRIDIUM 156             
1 43576U 18061H   23155.91428330  .00000019  00000+0 -20471-6 0  9997
2 43576  86.3977 159.9186 0002282  83.9117 276.2338 14.34215659254528
